{
  "type": "FeatureCollection",
  "features": [
    {
      "type": "Feature",
      "properties": {
        "comuna": "Comuna Norte",
        "nombre": "Comuna Norte"
      },
      "geometry": {
        "type": "Polygon",
        "coordinates": [
         [
             [
              -74.37357759983668,
              4.352112971920889
            ],
            [
              -74.37283270798785,
              4.34556751223154
            ],
            [
              -74.36040232525916,
              4.346913746173513
            ],
            [
              -74.35490874787331,
              4.350859590426111
            ],
            [
              -74.35718997916054,
              4.357172898217016
            ],
            [
              -74.37357759983668,
              4.352112971920889
            ]
          ]
        ]
      }
    },
    {
      "type": "Feature",
      "properties": {
        "comuna": "Comuna Sur Oriental",
        "nombre": "Comuna Sur Oriental"
      },
      "geometry": {
        "type": "Polygon",
        "coordinates": [
          [
            [
              -74.36616422000448,
              4.3396974868599045
            ],
            [
              -74.37088070131847,
              4.337516525814479
            ],
            [
              -74.37047045678024,
              4.329269327941859
            ],
            [
              -74.36447269675584,
              4.321295630266249
            ],
            [
              -74.35314578159127,
              4.3262548331023964
            ],
            [
              -74.35975674395245,
              4.332847675184681
            ],
            [
              -74.36616422000448,
              4.3396974868599045
            ]
          ]
        ]
      }
    },
    {
      "type": "Feature",
      "properties": {
        "comuna": "Comuna Oriental",
        "nombre": "Comuna Oriental"
      },
      "geometry": {
        "type": "Polygon",
        "coordinates": [
          [
            [
              -74.36035576951845,
              4.346728058876295
            ],
            [
              -74.35965815361334,
              4.343216545807351
            ],
            [
              -74.3661294015505,
              4.339734884415307
            ],
            [
              -74.35961087766961,
              4.332708535959995
            ],
            [
              -74.35323274121308,
              4.33795428196764
            ],
            [
              -74.35006695085524,
              4.346542371533232
            ],
            [
              -74.3550484150951,
              4.3508131688485605
            ],
            [
              -74.36035576951845,
              4.346728058876295
            ]
          ]
        ]
      }
    },
    {
      "type": "Feature",
      "properties": {
        "comuna": "Comuna Centro",
        "nombre": "Comuna Centro"
      },
      "geometry": {
        "type": "Polygon",
        "coordinates": [
          [
            [
              -74.37292581946889,
              4.34552109032883
            ],
            [
              -74.37478804909121,
              4.341250263033459
            ],
            [
              -74.36463889764977,
              4.340646774618392
            ],
            [
              -74.35975054489138,
              4.343153569488649
            ],
            [
              -74.3603092137777,
              4.346960167990474
            ],
            [
              -74.37292581946889,
              4.34552109032883
            ]
          ]
        ]
      }
    },
    {
      "type": "Feature",
      "properties": {
        "comuna": "Comuna Occidental",
        "nombre": "Comuna Occidental"
      },
      "geometry": {
        "type": "Polygon",
        "coordinates": [
          [
            [
              -74.39314075794994,
              4.352130083171133
            ],
            [
              -74.37838379534091,
              4.321844336875486
            ],
            [
              -74.36425393547275,
              4.32140421907711
            ],
            [
              -74.370626405797,
              4.329590005484377
            ],
            [
              -74.37069474016502,
              4.33752252318979
            ],
            [
              -74.36472523543765,
              4.340397608255799
            ],
            [
              -74.37495287702625,
              4.341080076302518
            ],
            [
              -74.37289291442288,
              4.345395860329944
            ],
            [
              -74.37351359883628,
              4.351845278700708
            ],
            [
              -74.3762677909431,
              4.359604961521541
            ],
            [
              -74.39314075794994,
              4.352130083171133
            ]
          ]
        ]
      }
    },
    {
      "type": "Feature",
      "properties": {
        "comuna": "Comuna Sur Occidental",
        "nombre": "Comuna Sur Occidental"
      },
      "geometry": {
        "type": "Polygon",
        "coordinates": [
          [
            [
              -74.38480596454414,
              4.3348981636507204
            ],
            [
              -74.39891977465692,
              4.337831821705947
            ],
            [
              -74.4007377722229,
              4.331789165792799
            ],
            [
              -74.41862156890129,
              4.328195881729144
            ],
            [
              -74.41727199354463,
              4.32401977776739
            ],
            [
              -74.39313947602705,
              4.327801013239011
            ],
            [
              -74.37867602099682,
              4.3216610327478975
            ],
            [
              -74.38041463728365,
              4.3262460792683015
            ],
            [
              -74.38480596454414,
              4.3348981636507204
            ]
          ]
        ]
      }
    }
  ]
}
